start=new Date('2023-05-25T00:00:00.000Z').valueOf();
sats=[{"RCS_SIZE":null,"OBJECT_ID":"2023-065X","MEAN_MOTION_DDOT":"0.0000000000000","CENTER_NAME":"EARTH","NORAD_CAT_ID":"56524","ARG_OF_PERICENTER":"280.5843","FILE":"3916549","REF_FRAME":"TEME","OBJECT_NAME":"STARLINK-6323","MEAN_MOTION":"15.71324769","SITE":"AFETR","COUNTRY_CODE":"US","MEAN_ELEMENT_THEORY":"SGP4","BSTAR":"0.00034293000000","EPOCH":"2023-05-24T22:00:00.999936","TLE_LINE1":"1 56524U 23065X   23144.91667824  .00044700  00000-0  34293-3 0  9994","REV_AT_EPOCH":"130","INCLINATION":"43.0012","LAUNCH_DATE":"2023-05-14","MEAN_MOTION_DOT":"0.00044700","PERIOD":"91.642","APOAPSIS":"356.160","SEMIMAJOR_AXIS":"6733.247","ELEMENT_SET_NO":"999","PERIAPSIS":"354.064","CLASSIFICATION_TYPE":"U","GP_ID":"232453890","TLE_LINE2":"2 56524  43.0012  19.6902 0001556 280.5843 244.5074 15.71324769  1303","ECCENTRICITY":"0.00015560","EPHEMERIS_TYPE":"0","RA_OF_ASC_NODE":"19.6902","MEAN_ANOMALY":"244.5074","OBJECT_TYPE":"PAYLOAD","DECAY_DATE":null,"TIME_SYSTEM":"UTC"},{"TIME_SYSTEM":"UTC","DECAY_DATE":null,"MEAN_ANOMALY":"265.3882","OBJECT_TYPE":"PAYLOAD","RA_OF_ASC_NODE":"19.6834","EPHEMERIS_TYPE":"0","ECCENTRICITY":"0.00020300","TLE_LINE2":"2 56525  43.0011  19.6834 0002030 262.6807 265.3882 15.71337138  1308","GP_ID":"232453942","CLASSIFICATION_TYPE":"U","PERIAPSIS":"353.710","ELEMENT_SET_NO":"999","SEMIMAJOR_AXIS":"6733.212","APOAPSIS":"356.443","PERIOD":"91.642","INCLINATION":"43.0011","LAUNCH_DATE":"2023-05-14","MEAN_MOTION_DOT":"0.00029747","REV_AT_EPOCH":"130","TLE_LINE1":"1 56525U 23065Y   23144.91667824  .00029747  00000-0  22965-3 0  9992","EPOCH":"2023-05-24T22:00:00.999936","BSTAR":"0.00022965000000","MEAN_ELEMENT_THEORY":"SGP4","COUNTRY_CODE":"US","SITE":"AFETR","MEAN_MOTION":"15.71337138","OBJECT_NAME":"STARLINK-6329","REF_FRAME":"TEME","FILE":"3916549","ARG_OF_PERICENTER":"262.6807","NORAD_CAT_ID":"56525","CENTER_NAME":"EARTH","OBJECT_ID":"2023-065Y","MEAN_MOTION_DDOT":"0.0000000000000","RCS_SIZE":null},{"NORAD_CAT_ID":"56526","ARG_OF_PERICENTER":"271.6957","FILE":"3916549","REF_FRAME":"TEME","OBJECT_NAME":"STARLINK-6317","MEAN_MOTION":"15.71338661","RCS_SIZE":null,"MEAN_MOTION_DDOT":"0.0000000000000","OBJECT_ID":"2023-065Z","CENTER_NAME":"EARTH","REV_AT_EPOCH":"130","MEAN_MOTION_DOT":"0.00028627","LAUNCH_DATE":"2023-05-14","INCLINATION":"43.0012","PERIOD":"91.642","BSTAR":"0.00022115000000","MEAN_ELEMENT_THEORY":"SGP4","EPOCH":"2023-05-24T22:00:00.999936","TLE_LINE1":"1 56526U 23065Z   23144.91667824  .00028627  00000-0  22115-3 0  9996","COUNTRY_CODE":"US","SITE":"AFETR","TLE_LINE2":"2 56526  43.0012  19.6871 0001635 271.6957 254.5794 15.71338661  1301","GP_ID":"232453604","ECCENTRICITY":"0.00016350","ELEMENT_SET_NO":"999","PERIAPSIS":"353.971","CLASSIFICATION_TYPE":"U","APOAPSIS":"356.173","SEMIMAJOR_AXIS":"6733.207","DECAY_DATE":null,"TIME_SYSTEM":"UTC","OBJECT_TYPE":"PAYLOAD","MEAN_ANOMALY":"254.5794","EPHEMERIS_TYPE":"0","RA_OF_ASC_NODE":"19.6871"},{"OBJECT_ID":"2023-065AA","MEAN_MOTION_DDOT":"0.0000000000000","CENTER_NAME":"EARTH","RCS_SIZE":null,"REF_FRAME":"TEME","OBJECT_NAME":"STARLINK-6335","MEAN_MOTION":"15.71315999","ARG_OF_PERICENTER":"280.3764","NORAD_CAT_ID":"56527","FILE":"3916549","COUNTRY_CODE":"US","SITE":"AFETR","LAUNCH_DATE":"2023-05-14","MEAN_MOTION_DOT":"0.00032161","INCLINATION":"43.0016","PERIOD":"91.643","REV_AT_EPOCH":"130","EPOCH":"2023-05-24T22:00:00.999936","TLE_LINE1":"1 56527U 23065AA  23144.91667824  .00032161  00000-0  24816-3 0  9995","BSTAR":"0.00024816000000","MEAN_ELEMENT_THEORY":"SGP4","APOAPSIS":"356.211","SEMIMAJOR_AXIS":"6733.272","GP_ID":"232453763","TLE_LINE2":"2 56527  43.0016  19.6820 0001595 280.3764 248.3101 15.71315999  1300","ECCENTRICITY":"0.00015950","PERIAPSIS":"354.063","CLASSIFICATION_TYPE":"U","ELEMENT_SET_NO":"999","RA_OF_ASC_NODE":"19.6820","EPHEMERIS_TYPE":"0","DECAY_DATE":null,"TIME_SYSTEM":"UTC","MEAN_ANOMALY":"248.3101","OBJECT_TYPE":"PAYLOAD"},{"SEMIMAJOR_AXIS":"6733.195","APOAPSIS":"356.177","ELEMENT_SET_NO":"999","CLASSIFICATION_TYPE":"U","PERIAPSIS":"353.943","ECCENTRICITY":"0.00016590","TLE_LINE2":"2 56528  43.0011  19.6845 0001659 249.3048 278.1614 15.71342771  1302","GP_ID":"232453656","EPHEMERIS_TYPE":"0","RA_OF_ASC_NODE":"19.6845","MEAN_ANOMALY":"278.1614","OBJECT_TYPE":"PAYLOAD","TIME_SYSTEM":"UTC","DECAY_DATE":null,"RCS_SIZE":null,"CENTER_NAME":"EARTH","OBJECT_ID":"2023-065AB","MEAN_MOTION_DDOT":"0.0000000000000","FILE":"3916549","NORAD_CAT_ID":"56528","ARG_OF_PERICENTER":"249.3048","MEAN_MOTION":"15.71342771","REF_FRAME":"TEME","OBJECT_NAME":"STARLINK-6337","SITE":"AFETR","COUNTRY_CODE":"US","BSTAR":"0.00009248900000","MEAN_ELEMENT_THEORY":"SGP4","TLE_LINE1":"1 56528U 23065AB  23144.91667824  .00011687  00000-0  92489-4 0  9998","EPOCH":"2023-05-24T22:00:00.999936","REV_AT_EPOCH":"130","PERIOD":"91.641","MEAN_MOTION_DOT":"0.00011687","LAUNCH_DATE":"2023-05-14","INCLINATION":"43.0011"},{"COUNTRY_CODE":"US","SITE":"AFETR","PERIOD":"91.642","MEAN_MOTION_DOT":"0.00009668","LAUNCH_DATE":"2023-05-14","INCLINATION":"43.0022","REV_AT_EPOCH":"130","TLE_LINE1":"1 56529U 23065AC  23144.91667824  .00009668  00000-0  77145-4 0  9997","EPOCH":"2023-05-24T22:00:00.999936","MEAN_ELEMENT_THEORY":"SGP4","BSTAR":"0.00007714500000","CENTER_NAME":"EARTH","OBJECT_ID":"2023-065AC","MEAN_MOTION_DDOT":"0.0000000000000","RCS_SIZE":null,"MEAN_MOTION":"15.71336239","REF_FRAME":"TEME","OBJECT_NAME":"STARLINK-6307","FILE":"3916549","ARG_OF_PERICENTER":"280.2596","NORAD_CAT_ID":"56529","RA_OF_ASC_NODE":"19.6764","EPHEMERIS_TYPE":"0","DECAY_DATE":null,"TIME_SYSTEM":"UTC","OBJECT_TYPE":"PAYLOAD","MEAN_ANOMALY":"250.7919","SEMIMAJOR_AXIS":"6733.214","APOAPSIS":"356.149","ECCENTRICITY":"0.00015890","GP_ID":"232453707","TLE_LINE2":"2 56529  43.0022  19.6764 0001589 280.2596 250.7919 15.71336239  1305","CLASSIFICATION_TYPE":"U","PERIAPSIS":"354.009","ELEMENT_SET_NO":"999"},{"APOAPSIS":"356.192","SEMIMAJOR_AXIS":"6733.149","ELEMENT_SET_NO":"999","PERIAPSIS":"353.835","CLASSIFICATION_TYPE":"U","TLE_LINE2":"2 56530  43.0016  19.6801 0001750 273.7652 255.4900 15.71359137  1306","GP_ID":"232453840","ECCENTRICITY":"0.00017500","EPHEMERIS_TYPE":"0","RA_OF_ASC_NODE":"19.6801","OBJECT_TYPE":"PAYLOAD","MEAN_ANOMALY":"255.4900","DECAY_DATE":null,"TIME_SYSTEM":"UTC","RCS_SIZE":null,"MEAN_MOTION_DDOT":"0.0000000000000","OBJECT_ID":"2023-065AD","CENTER_NAME":"EARTH","NORAD_CAT_ID":"56530","ARG_OF_PERICENTER":"273.7652","FILE":"3916549","OBJECT_NAME":"STARLINK-6318","REF_FRAME":"TEME","MEAN_MOTION":"15.71359137","SITE":"AFETR","COUNTRY_CODE":"US","MEAN_ELEMENT_THEORY":"SGP4","BSTAR":"-0.00020135000000","EPOCH":"2023-05-24T22:00:00.999936","TLE_LINE1":"1 56530U 23065AD  23144.91667824 -.00026775  00000-0 -20135-3 0  9995","REV_AT_EPOCH":"130","MEAN_MOTION_DOT":"-0.00026775","LAUNCH_DATE":"2023-05-14","INCLINATION":"43.0016","PERIOD":"91.640"},{"CLASSIFICATION_TYPE":"U","PERIAPSIS":"353.888","ELEMENT_SET_NO":"999","ECCENTRICITY":"0.00017830","TLE_LINE2":"2 56531  43.0015  19.6745 0001783 268.6858 262.9632 15.71332900  1304","GP_ID":"232454000","SEMIMAJOR_AXIS":"6733.224","APOAPSIS":"356.289","MEAN_ANOMALY":"262.9632","OBJECT_TYPE":"PAYLOAD","TIME_SYSTEM":"UTC","DECAY_DATE":null,"RA_OF_ASC_NODE":"19.6745","EPHEMERIS_TYPE":"0","MEAN_MOTION":"15.71332900","REF_FRAME":"TEME","OBJECT_NAME":"STARLINK-6280","FILE":"3916549","NORAD_CAT_ID":"56531","ARG_OF_PERICENTER":"268.6858","CENTER_NAME":"EARTH","MEAN_MOTION_DDOT":"0.0000000000000","OBJECT_ID":"2023-065AE","RCS_SIZE":null,"TLE_LINE1":"1 56531U 23065AE  23144.91667824  .00020864  00000-0  16230-3 0  9998","EPOCH":"2023-05-24T22:00:00.999936","BSTAR":"0.00016230000000","MEAN_ELEMENT_THEORY":"SGP4","PERIOD":"91.642","INCLINATION":"43.0015","LAUNCH_DATE":"2023-05-14","MEAN_MOTION_DOT":"0.00020864","REV_AT_EPOCH":"130","SITE":"AFETR","COUNTRY_CODE":"US"},{"OBJECT_TYPE":"PAYLOAD","MEAN_ANOMALY":"257.8198","TIME_SYSTEM":"UTC","DECAY_DATE":null,"EPHEMERIS_TYPE":"0","RA_OF_ASC_NODE":"19.6790","ELEMENT_SET_NO":"999","CLASSIFICATION_TYPE":"U","PERIAPSIS":"354.007","ECCENTRICITY":"0.00016540","TLE_LINE2":"2 56532  43.0015  19.6790 0001654 272.0565 257.8198 15.71321506  1306","GP_ID":"232453891","SEMIMAJOR_AXIS":"6733.256","APOAPSIS":"356.235","BSTAR":"0.00028978000000","MEAN_ELEMENT_THEORY":"SGP4","TLE_LINE1":"1 56532U 23065AF  23144.91667824  .00037665  00000-0  28978-3 0  9998","EPOCH":"2023-05-24T22:00:00.999936","REV_AT_EPOCH":"130","PERIOD":"91.643","LAUNCH_DATE":"2023-05-14","MEAN_MOTION_DOT":"0.00037665","INCLINATION":"43.0015","SITE":"AFETR","COUNTRY_CODE":"US","FILE":"3916549","ARG_OF_PERICENTER":"272.0565","NORAD_CAT_ID":"56532","MEAN_MOTION":"15.71321506","OBJECT_NAME":"STARLINK-6319","REF_FRAME":"TEME","RCS_SIZE":null,"CENTER_NAME":"EARTH","MEAN_MOTION_DDOT":"0.0000000000000","OBJECT_ID":"2023-065AF"},{"MEAN_ELEMENT_THEORY":"SGP4","BSTAR":"-0.00011509000000","EPOCH":"2023-05-24T22:00:00.999936","TLE_LINE1":"1 56533U 23065AG  23144.91667824 -.00015519  00000-0 -11509-3 0  9997","REV_AT_EPOCH":"130","LAUNCH_DATE":"2023-05-14","INCLINATION":"43.0025","MEAN_MOTION_DOT":"-0.00015519","PERIOD":"91.640","SITE":"AFETR","COUNTRY_CODE":"US","ARG_OF_PERICENTER":"276.0323","NORAD_CAT_ID":"56533","FILE":"3916549","REF_FRAME":"TEME","OBJECT_NAME":"STARLINK-6310","MEAN_MOTION":"15.71359638","RCS_SIZE":null,"OBJECT_ID":"2023-065AG","MEAN_MOTION_DDOT":"0.0000000000000","CENTER_NAME":"EARTH","OBJECT_TYPE":"PAYLOAD","MEAN_ANOMALY":"256.1973","DECAY_DATE":null,"TIME_SYSTEM":"UTC","EPHEMERIS_TYPE":"0","RA_OF_ASC_NODE":"19.6734","ELEMENT_SET_NO":"999","PERIAPSIS":"353.861","CLASSIFICATION_TYPE":"U","TLE_LINE2":"2 56533  43.0025  19.6734 0001710 276.0323 256.1973 15.71359638  1305","GP_ID":"232453943","ECCENTRICITY":"0.00017100","APOAPSIS":"356.164","SEMIMAJOR_AXIS":"6733.147"}];
